SEEDS II (CO-66)        
1 32791U 08021J   26074.48299987  .00017206  00000+0  60641-3 0  9993
2 32791  97.7514  68.1553 0000558 316.1647  43.9548 15.29356449972954
YUBILEINY (RS30)        
1 32953U 08025A   26074.50230667  .00000082  00000+0  52025-3 0  9991
2 32953  82.5005  53.7055 0019729 152.6312 207.5812 12.43176402808053
KKS-1 (KISEKI)          
1 33499U 09002H   26074.53797793  .00001619  00000+0  20678-3 0  9990
2 33499  98.1184 355.5220 0006700 227.7929 132.2716 14.82853385922310
SWISSCUBE               
1 35932U 09051B   26074.29383809  .00001244  00000+0  25645-3 0  9993
2 35932  98.4097 340.5359 0007443 136.4334 223.7456 14.62275985875437
BEESAT-1                
1 35933U 09051C   26074.59766977  .00000939  00000+0  19900-3 0  9995
2 35933  98.4025 340.6735 0005701 146.0646 214.0920 14.61547257875517
ITUPSAT1                
1 35935U 09051E   26074.57554055  .00000858  00000+0  18773-3 0  9994
2 35935  98.4111 339.9399 0007665 159.8254 200.3250 14.60280983875074
XIWANG-1 (HOPE-1)       
1 36122U 09072B   26074.61293248  .00000280  00000+0  84823-3 0  9993
2 36122 100.3918  29.9833 0008140  87.2245 272.9800 13.16437240780692
O/OREOS (USA 219)       
1 37224U 10062C   26074.02388635  .00002826  00000+0  27482-3 0  9994
2 37224  71.9705 293.5681 0016706 247.6425 112.2976 14.93311159102584
JUGNU                   
1 37839U 11058B   26074.57887517  .00000466  00000+0  10393-3 0  9996
2 37839  19.9595 157.1175 0018706 122.1217   5.2801 14.13743766745762
SRMSAT                  
1 37841U 11058D   26074.62633061  .00000437  00000+0  93341-4 0  9991
2 37841  19.9715 265.7726 0011716 254.6546 165.5822 14.11550053744582
STRAND-1                
1 39090U 13009E   26074.48248838  .00000371  00000+0  13911-3 0  9996
2 39090  98.3893 257.0303 0009324 145.3997 214.7798 14.37100277683602
ZACUBE-1 (TSHEPISOSAT)  
1 39417U 13066B   26074.46565299  .00004642  00000+0  36728-3 0  9999
2 39417  97.8155  36.3176 0043205 200.7842 159.1627 15.00386891666677
GOMX-1                  
1 39430U 13066Q   26074.61407845  .00002725  00000+0  41510-3 0  9998
2 39430  97.6570 280.9500 0129882  18.5950 341.9938 14.69125050656172
CUBEBUG-2 (LO-74)       
1 39440U 13066AA  26074.59542138  .00005652  00000+0  53146-3 0  9991
2 39440  97.8814  23.2773 0057869 339.4708  20.4186 14.93032954663020
FUNCUBE-1 (AO-73)       
1 39444U 13066AE  26074.14862953  .00009801  00000+0  63026-3 0  9994
2 39444  97.8183  43.7800 0037879 160.7434 199.5236 15.08016483665483
UWE-3                   
1 39446U 13066AG  26074.41422755  .00005848  00000+0  51154-3 0  9994
2 39446  97.8597  29.9677 0047826 272.4168  87.1578 14.96251217663559
UNISAT-6                
1 40012U 14033C   26074.39057788  .00003295  00000+0  36108-3 0  9993
2 40012  97.7730 228.8559 0045690  19.2963 340.9971 14.87682326632219
DUCHIFAT-1              
1 40021U 14033M   26074.57381311  .00053924  00000+0  93824-3 0  9997
2 40021  98.0628 121.6983 0005512  68.0551 292.1285 15.50600758641186
QB50P1                  
1 40025U 14033R   26074.51614725  .00008402  00000+0  43270-3 0  9994
2 40025  98.1003  79.1932 0009043 174.1991 185.9347 15.16652450638822
LILACSAT-2              
1 40908U 15049K   26074.59062209  .00015280  00000+0  29113-3 0  9996
2 40908  97.4801 108.0206 0006185 219.0458 141.0347 15.48266083581252
FOX-1A (AO-85)          
1 40967U 15058D   26074.63151744  .00003334  00000+0  30689-3 0  9996
2 40967  64.7753 209.5937 0128727  93.5346 268.0499 14.90407607 99624
CAS-2T & KS-1Q          
1 41847U 16066G   26074.59482586  .00001169  00000+0  17176-3 0  9990
2 41847  98.3876 151.3796 0343428  53.6380 309.5988 14.44487458491283
RADFXSAT (FOX-1B)       
1 43017U 17073E   26074.55542750  .00009023  00000+0  40952-3 0  9991
2 43017  97.4859 303.7287 0153657 291.8127  66.6817 15.11014867451240
DIWATA-2B               
1 43678U 18084H   26074.59262116  .00001428  00000+0  11996-3 0  9993
2 43678  98.1038 266.8719 0012384 109.1833 251.0731 14.99993594402187
ES'HAIL 2               
1 43700U 18090A   26074.57194847  .00000143  00000+0  00000+0 0  9992
2 43700   0.0133 119.8586 0001077 233.1719  51.8455  1.00272387 26738
FOX-1CLIFF (AO-95)      
1 43770U 18099N   26074.61620011  .00010874  00000+0  44355-3 0  9997
2 43770  97.4503 135.3057 0007781 324.3751  35.6966 15.24584164398952
ITASAT                  
1 43786U 18099AE  26074.57636841  .00006940  00000+0  34614-3 0  9993
2 43786  97.4159 127.9855 0011694 324.4422  35.6031 15.17779444398708
JY1SAT (JO-97)          
1 43803U 18099AX  26074.57085187  .00014838  00000+0  50443-3 0  9997
2 43803  97.4249 137.2476 0005081 231.0298 129.0491 15.30545056399296
UWE-4                   
1 43880U 18111E   26074.52223921  .00031757  00000+0  78447-3 0  9995
2 43880  97.5852 359.0229 0006512 315.0490  45.0228 15.40418413396333
TIANYAN 01              
1 44881U 19093C   26074.60986094  .00001106  00000+0  13136-3 0  9992
2 44881  97.7603 149.1075 0014538  39.6885 320.5392 14.86354743337514
RS-44 & BREEZE-KM R/B   
1 44909U 19096E   26074.42337914  .00000018  00000+0  27218-4 0  9995
2 44909  82.5214  42.0033 0217689   3.9354 356.3395 12.79747561290351
SALSAT                  
1 46495U 20068K   26074.50041730  .00008263  00000+0  30233-3 0  9995
2 46495  97.8856  71.9689 0008038 271.4989  88.5328 15.28310816301049
XW-3 (CAS-9)            
1 50466U 21131B   26074.61333370  .00000623  00000+0  20635-3 0  9993
2 50466  98.4953 167.5342 0004644  34.2868 325.8620 14.41259308221635
GREENCUBE (IO-117)      
1 53109U 22080E   26074.64681150 -.00000003  00000+0  00000+0 0  9992
2 53109  70.1596 330.7852 0008914 311.0797  48.9092  6.42583143 86053
UMKA 1 (RS40S)          
1 57172U 23091G   26074.63004866  .00006462  00000+0  30508-3 0  9995
2 57172  97.5174 133.7121 0014654  87.5469 272.7443 15.19693130149791
CUBESX-HSE 3 (RS42S)    
1 57178U 23091N   26074.65127258  .00013225  00000+0  47384-3 0  9999
2 57178  97.5202 139.1823 0012423  68.6321 291.6243 15.28800272150121
MONITOR-3 (RS58S)       
1 57180U 23091Q   26074.61493582  .00011440  00000+0  44776-3 0  9993
2 57180  97.5196 137.4631 0013469  73.4286 286.8431 15.25900190150019
MONITOR-4 (RS57S)       
1 57182U 23091S   26074.59972687  .00012021  00000+0  46908-3 0  9995
2 57182  97.5191 137.4130 0013431  73.9180 286.3536 15.25987141150019
MONITOR-2 (RS39S)       
1 57184U 23091U   26074.60596325  .00004727  00000+0  23543-3 0  9994
2 57184  97.5196 133.5038 0012991  80.8268 279.4434 15.17992102149757
SVYATOBOR 1 (RS60S)     
1 57187U 23091X   26074.60600247  .00008985  00000+0  36288-3 0  9996
2 57187  97.5202 137.9741 0010927  67.1172 293.1218 15.24949109150040
VIZARD-METEO (RS38S)    
1 57189U 23091Z   26074.63838059  .00013811  00000+0  43513-3 0  9998
2 57189  97.5192 142.4250 0008391  54.4326 305.7697 15.32993241150347
NANOZOND 1 (RS49S)      
1 57190U 23091AA  26074.26912972  .00233163  00000+0  13847-2 0  9996
2 57190  97.5058 154.9745 0002282 289.4604  70.6415 15.77351754151151
POLYTECH-UNIVERSE 3 (R*)
1 57191U 23091AB  26074.64525177  .00006280  00000+0  30941-3 0  9999
2 57191  97.5170 133.0492 0017380  95.3840 264.9377 15.18179651149752
UTMN 2 (RS27S)          
1 57203U 23091AP  26074.59071690  .00014359  00000+0  50103-3 0  9991
2 57203  97.5194 140.6396 0009368  58.7378 301.4778 15.29677690150229
KUZGTU 1 (RS47S)        
1 57217U 23091AV  26074.63152051  .00012862  00000+0  47718-3 0  9997
2 57217  97.5177 138.2677 0012693  71.4852 288.7765 15.27655487150089
SONATE-2                
1 59112U 24043Q   26074.65709310  .00034891  00000+0  58215-3 0  9999
2 59112  97.5396 219.8760 0007969 182.6826 177.4384 15.51859148113350
MESAT1                  
1 60209U 24125G   26074.56034703  .00039522  00000+0  60491-3 0  9991
2 60209  97.2450 290.4701 0011704 198.0830 162.0009 15.54188849 94982
OOV-CUBE (TUBSAT-30)    
1 60240U 24128F   26074.62003842  .00002919  00000+0  22898-3 0  9995
2 60240  61.9953 191.7222 0054021 113.5357 247.1422 15.02299472 92057
COLIBRI-S (RS67S)       
1 61746U 24199M   26074.58371404  .00019383  00000+0  42984-3 0  9993
2 61746  97.3155 307.7759 0007476 258.6631 101.3778 15.43754284122958
HORS 3 (RS81S)          
1 61753U 24199U   26074.59117837  .00029331  00000+0  54584-3 0  9993
2 61753  97.3123 308.9316 0005292 260.6367  99.4286 15.48812459123042
HORS 4 (RS82S)          
1 61754U 24199V   26074.58363874  .00039065  00000+0  65499-3 0  9999
2 61754  97.3095 309.6444 0004953 255.9215 104.1487 15.51719484123093
HORIZON (RS59S)         
1 61757U 24199Y   26074.60601564  .00134577  00000+0  10156-2 0  9999
2 61757  97.3059 313.6811 0003724 211.2339 148.8704 15.72058023123350
ARCTICSAT 1 (RS74S)     
1 61762U 24199AD  26074.63673612  .00099853  00000+0  92829-3 0  9996
2 61762  97.3082 313.1932 0004031 213.6955 146.4050 15.67088528123325
SIT-2086                
1 61764U 24199AF  26074.60510112  .00021615  00000+0  41492-3 0  9991
2 61764  97.3118 309.6692 0005983 247.0061 113.0559 15.47973902119939
HYPERVIEW 1G (RS66S)    
1 61772U 24199AP  26074.59972547  .00060373  00000+0  77634-3 0  9993
2 61772  97.3080 310.8289 0006342 254.1946 105.8611 15.58869695120028
ALTAIR (RS65S)          
1 61779U 24199AW  26074.63357190  .00009901  00000+0  29218-3 0  9991
2 61779  97.3180 304.6481 0011721 284.2820  75.7122 15.35117585122756
ASRTU-1 (AO-123)        
1 61781U 24199AY  26074.61678591  .00008448  00000+0  25704-3 0  9994
2 61781  97.3153 304.1481 0012467 286.5036  73.4837 15.34192962119571
TUSUR GO (RS78S)        
1 61782U 24199AZ  26074.61631330  .00153139  00000+0  11137-2 0  9997
2 61782  97.3009 312.7048 0003824 231.6947 128.3974 15.72880886120154
SAMSAT-IONOSPHERE (RS7*)
1 61784U 24199BB  26074.61080139  .00036980  00000+0  65714-3 0  9999
2 61784  97.3116 308.7539 0008404 266.4805  93.5485 15.50061445123031
